full_name,a,e,i,om,w,q,ad,H,diameter,ma,E_rad,E_deg
(2002 XB40),1.856,0.5538,6.8,255.87,117.96,0.828,2.88,23.9,,-161.7,-2.9355163852135284,-168.19269956423477
(2002 XF40),1.681,0.4264,10.11,74.99,326.5,0.964,2.4,24.9,,-165.91,-2.968932709502998,-170.10731391286185
(2002 XO40),2.481,0.5945,49.21,260.51,143.35,1.006,3.96,20.7,,143.16000000000003,2.7341768408511884,156.65679342318566
(2002 XE84),2.63,0.636,27.93,73.5,54.97,0.957,4.3,21.3,,-45.06,-1.4147140637328959,-81.0571450696967
(2002 XQ90),2.174,0.5734,3.26,281.75,116.61,0.927,3.42,22.5,,-110.88,-2.34513524385115,-134.36635186005404
(2002 XS90),0.8098,0.2418,34.17,81.65,178.65,0.614,1.01,22.8,,175.48000000000002,3.0780564831303803,176.35964558625187
(2002 XT90),1.03,0.2239,43.39,287.66,43.06,0.799,1.26,19.06,,-97.74,-1.9165355700194386,-109.80939944881331
(2002 XV90),1.581,0.3772,9.97,79.16,356.08,0.985,2.18,25.28,,-172.61,-3.047901459751093,-174.6318900155004
(2002 YG4),1.463,0.3093,9.73,283.64,177.5,1.011,1.92,24.0,,154.89,2.8053822688560985,160.73656392628965
(2002 YC12),1.717,0.4388,11.47,99.51,32.79,0.963,2.47,25.3,,169.08999999999997,3.009131403861329,172.41052944153057
(2003 AB23),1.555,0.4233,13.37,113.37,257.74,0.897,2.21,20.22,,152.95999999999998,2.808186333398636,160.89722499005933
(2003 AC23),2.171,0.5817,2.06,43.74,126.4,0.908,3.43,21.9,,-140.29,-2.698118383218599,-154.590795985087
(2003 AF23),0.8744,0.4259,23.23,286.74,43.95,0.502,1.25,21.01,,-101.81,-2.136475124772538,-122.41100768415238
(2003 AS42),1.504,0.3421,10.02,107.49,23.92,0.989,2.02,25.3,,169.68,3.007283739742676,172.304666085574
(2003 AJ69),2.469,0.6177,1.46,303.55,130.32,0.944,3.99,24.9,,-172.18,-3.057184767369391,-175.1637843619505
(2003 AK73),2.445,0.6982,4.04,175.44,195.78,0.738,4.15,19.62,,-177.87,-3.1197008069721344,-178.7456895830604
(2003 AA83),2.436,0.7773,6.77,88.55,126.43,0.542,4.33,21.84,,165.69,3.000863837674193,171.9368327921626
(2003 BN1),1.537,0.4869,61.06,298.79,104.34,0.789,2.29,20.61,,-160.44,-2.9113320505499294,-166.80703925767858
(2003 BM4),1.199,0.3376,9.63,125.33,84.71,0.794,1.6,24.95,,-89.07,-1.876510964479164,-107.51615847467963
(2003 BB21),2.23,0.5538,4.77,344.09,212.76,0.995,3.46,21.05,,107.86000000000001,2.296699322140323,131.5911779691976
(2003 BW33),2.096,0.5278,24.96,300.79,242.01,0.989,3.2,21.3,,-9.129999999999995,-0.33075581823711336,-18.950912434382786
(2003 BS35),1.255,0.2065,8.48,127.45,27.1,0.996,1.51,24.7,,164.62,2.9187900438960965,167.2343508000506
(2003 BV35),1.716,0.5884,30.81,311.19,95.69,0.706,2.73,22.1,,-155.63,-2.872618736017746,-164.588929724022
(2003 BC44),2.103,0.5562,7.07,308.46,120.38,0.933,3.27,25.5,,-163.53,-2.956499121910968,-169.39492181963232
(2003 BR47),1.628,0.5002,4.42,314.4,112.75,0.814,2.44,21.53,,-168.34,-3.0058014663188715,-172.2197380743056
(2003 BS47),2.106,0.522,4.89,131.67,358.14,1.006,3.2,25.8,,-179.34,-3.134024183957333,-179.5663586326871
(2003 CA4),0.9208,0.119,7.49,139.68,172.86,0.811,1.03,23.6,,-63.72,-1.2240409602974631,-70.132380976185
(2003 CG11),2.592,0.7344,21.28,130.4,107.19,0.688,4.5,20.5,,-27.53,-1.151175014216688,-65.95746979552877
(2003 CL18),2.542,0.6444,14.46,168.35,254.66,0.904,4.18,20.6,,61.93000000000001,1.7182862007752044,98.45054729998799
(2003 CO20),2.166,0.5411,20.49,139.26,339.7,0.994,3.34,23.1,,-173.28,-3.065461378513521,-175.6379992491801
(2003 DF6),1.221,0.1727,25.78,157.19,76.39,1.01,1.43,21.2,,69.75,1.387163517402637,79.47861504169322
(2003 DG6),2.003,0.6059,8.9,40.16,36.57,0.789,3.22,20.75,,-153.64,-2.853610438308057,-163.49983448952864
(2003 DH6),1.465,0.3131,19.15,340.32,180.76,1.006,1.92,24.3,,110.68,2.187207081198686,125.31773467381225
(2003 DW10),1.446,0.3607,2.19,342.08,221.21,0.925,1.97,26.1,,-176.14,-3.0920762231583847,-177.16291751972713
(2003 DY15),1.231,0.3284,6.32,342.72,253.1,0.827,1.63,26.3,,12.669999999999987,0.3264432700329392,18.703821623336864
(2003 DZ15),1.222,0.487,3.68,141.8,263.73,0.627,1.82,22.41,,179.8,3.1392452026456543,179.86550096828682
(2003 DF16),1.783,0.4366,26.28,2.79,100.86,1.004,2.56,20.05,,43.53,1.1600218744297983,66.4643575476822
(2003 EM1),0.9567,0.0525,15.26,345.92,23.44,0.906,1.01,24.5,,63.03,1.147957225946547,65.77310410828298
(2003 EP4),1.36,0.6449,0.51,212.37,66.42,0.483,2.24,23.93,,-97.94,-2.2222155091046703,-127.32356984021317
(2003 EG16),2.39,0.6898,20.4,151.21,110.69,0.741,4.04,19.37,,-152.85,-2.8596520345757215,-163.8459924571878
(2003 EZ16),1.175,0.1393,5.8,341.85,71.67,1.012,1.34,22.6,,-146.09,-2.6192499233654463,-150.07196609880438
(2003 EC50),2.17,0.5805,5.89,21.28,201.41,0.91,3.43,22.9,,167.44,3.0027301621911353,172.04376531018522
(2003 EW59),1.893,0.6759,5.44,165.26,281.12,0.614,3.17,23.3,,-159.84,-2.931014492888362,-167.93476013418038
(2003 FK1),0.7075,0.4857,23.35,177.59,196.51,0.364,1.05,23.0,,-19.78,-0.632259935398224,-36.225825853532314
(2003 FU3),0.8584,0.394,13.04,21.54,339.39,0.52,1.2,21.1,,-163.66,-2.936606120101762,-168.2551367741187
(2003 FB5),2.517,0.7887,5.35,358.44,288.32,0.532,4.5,23.42,,168.19,3.026243519654115,173.39098145499634
(2003 FF5),1.37,0.304,6.34,192.72,54.27,0.953,1.79,23.3,,-164.16,-2.929211960399951,-167.83148263015923
(2003 FY6),0.7299,0.5821,6.6,359.09,29.75,0.305,1.15,22.61,,42.22,1.297350743544318,74.33272215324865
(2003 FJ8),1.825,0.5161,1.57,11.31,125.31,0.883,2.77,26.7,,-163.57,-2.9520654853203316,-169.1408931550941
(2003 GD),1.603,0.367,31.35,13.51,160.38,1.015,2.19,22.1,,-171.37,-3.031348453952495,-173.68347264498513
(2003 GF21),1.764,0.488,21.82,20.11,221.55,0.903,2.63,22.2,,164.98000000000002,2.9651176745136367,169.8887285092767
(2003 GG21),2.139,0.7119,10.16,11.05,97.37,0.616,3.66,21.97,,-85.25,-2.1017735540661304,-120.42275414020041
(2003 GQ22),0.8724,0.1814,17.02,199.46,168.7,0.714,1.03,21.34,,-74.59,-1.4825349888370394,-84.94299784083697
(2003 GR22),1.545,0.6089,6.17,23.33,276.94,0.604,2.49,22.16,,71.91999999999999,1.8419011081366614,105.53315977670013
(2003 GB34),2.577,0.6771,27.22,201.48,255.78,0.832,4.32,18.92,,15.710000000000008,0.7213446987881315,41.330006814695565
(2003 GU41),2.043,0.6707,18.94,89.04,195.48,0.673,3.41,18.42,,63.75999999999999,1.7702281825483919,101.4266036351371
(2003 GD42),1.295,0.2288,12.25,18.1,156.29,0.998,1.59,24.7,,-38.25,-0.8375950137002101,-47.99065922622441
(2003 GP51),2.152,0.6022,2.86,141.89,357.51,0.856,3.45,22.0,,-162.32,-2.948548775482126,-168.93940052359275
(2003 HM),0.8138,0.2696,26.27,30.44,19.36,0.594,1.03,22.11,,-110.99,-2.161114767956046,-123.82275524727567
(2003 HN),2.026,0.511,10.72,212.67,65.19,0.991,3.06,20.14,,94.47000000000003,2.091969870406761,119.86104444283717
(2003 HW10),1.797,0.5322,3.91,37.64,239.51,0.841,2.75,27.0,,-66.06,-1.681884075616972,-96.3648591631143
(2003 HN16),1.289,0.211,26.19,215.44,339.11,1.017,1.56,22.16,,-11.189999999999998,-0.24686299117868632,-14.144207512513987
(2003 HP32),2.69,0.78,3.48,187.76,155.79,0.592,4.79,19.48,,-169.06,-3.034233219102151,-173.84875751294686
(2003 HT42),0.8147,0.2617,4.87,38.56,352.56,0.602,1.03,24.8,,-102.29,-2.0209291743682556,-115.79071238615907
(2003 JX2),1.116,0.2439,9.69,219.35,276.23,0.844,1.39,26.4,,-121.75999999999999,-2.3060104007185473,-132.1246634744445
(2003 JY2),1.433,0.6042,4.95,47.85,70.85,0.567,2.3,24.6,,-146.57999999999998,-2.774917519745168,-158.9910623783084
(2003 JD11),1.753,0.5446,8.53,220.83,74.89,0.798,2.71,24.3,,158.99,2.903397088599192,166.35239942730448
(2003 JO14),1.225,0.3407,7.11,49.88,95.8,0.807,1.64,25.2,,88.91000000000003,1.8766594659740425,107.52466698358757
(2003 JP14),2.117,0.54,13.67,52.29,127.55,0.974,3.26,22.3,,-49.05000000000001,-1.3869875193383854,-79.46853109540913
(2003 JV14),1.634,0.5793,5.46,98.96,33.39,0.688,2.58,21.39,,135.76999999999998,2.6454179796861648,151.57128528404218
(2003 JC17),2.344,0.7167,27.31,80.66,40.5,0.664,4.02,17.88,,-54.41,-1.6632713524975211,-95.2984286831242
(2003 KF4),2.325,0.5741,8.3,60.61,157.59,0.99,3.66,23.3,,-55.790000000000006,-1.547665616239307,-88.67470790802601
(2003 LH),0.9616,0.149,10.8,247.12,238.76,0.818,1.1,25.2,,-122.28999999999999,-2.250270706775084,-128.9310142601331
(2003 LW2),1.846,0.471,2.22,246.81,334.38,0.977,2.72,25.8,,111.88999999999999,2.3031011706456277,131.95797686963368
(2003 LN6),0.8568,0.2094,0.67,214.1,211.99,0.677,1.04,24.71,,130.44,2.4156203647795462,138.40485180772038
(2003 MN),2.301,0.6016,2.67,254.39,59.53,0.917,3.69,23.8,,170.82,3.041491663511236,174.26463574341778
(2003 ME1),1.04,0.3028,21.05,268.58,255.59,0.725,1.36,23.6,,-65.39,-1.4415450447262195,-82.59444704080987
(2003 MS2),1.042,0.1263,20.03,100.82,254.5,0.911,1.17,21.21,,137.67000000000002,2.4803548803588416,142.11386633923786
(2003 MK4),1.081,0.1813,22.32,282.58,109.7,0.885,1.28,20.86,,69.44999999999999,1.390492145629755,79.66933139067521
(2003 MW7),1.169,0.5479,20.48,106.93,52.68,0.528,1.81,21.45,,132.55,2.597193590516963,148.80823131505053
(2003 OC3),2.25,0.5975,13.13,172.34,22.99,0.906,3.59,18.83,,61.599999999999994,1.66970268847197,95.6669170910908
(2003 OT13),1.173,0.1714,13.1,135.54,242.64,0.972,1.37,23.35,,-30.539999999999992,-0.6346452168470389,-36.36249241350026
(2003 QU5),1.439,0.3273,2.15,288.48,84.76,0.968,1.91,24.2,,159.58999999999997,2.872413267006994,164.5771572168852
(2003 QZ29),2.476,0.6058,8.71,162.53,251.47,0.976,3.98,19.29,,51.31,1.4998024236279668,85.93234897737449
(2003 QB30),1.231,0.4178,0.64,314.83,107.83,0.717,1.75,26.8,,-119.63,-2.3771202789987287,-136.19895938158788
(2003 RS1),2.776,0.6413,2.66,172.35,164.12,0.996,4.56,21.7,,92.63,2.1525166029083715,123.330116678487
(2003 RB5),1.884,0.4716,44.62,341.93,27.59,0.996,2.77,21.2,,172.17000000000002,3.0486854188163823,174.67680756125247
(2003 RU11),0.8886,0.1823,4.67,178.18,316.73,0.727,1.05,25.5,,-138.51,-2.5231474443913067,-144.56569965284146
(2003 RW11),2.629,0.825,10.34,170.47,53.91,0.46,4.8,18.7,1507.0,-91.54,-2.2431299601813555,-128.52187961774007
(2003 SF),2.179,0.7765,5.57,76.42,33.25,0.487,3.87,19.91,,127.29000000000002,2.6131394610208676,149.7218623955864
